[{"OBJECT_NAME":"JILIN-1 08","OBJECT_ID":"2018-008F","EPOCH":"2026-03-09T22:37:53.184288","MEAN_MOTION":15.32205976,"ECCENTRICITY":0.00081321,"INCLINATION":97.1902,"RA_OF_ASC_NODE":90.9961,"ARG_OF_PERICENTER":76.0646,"MEAN_ANOMALY":284.15,"EPHEMERIS_TYPE":0,"CLASSIFICATION_TYPE":"U","NORAD_CAT_ID":43160,"ELEMENT_SET_NO":999,"REV_AT_EPOCH":44974,"BSTAR":0.00036689195,"MEAN_MOTION_DOT":0.00011349,"MEAN_MOTION_DDOT":0},{"OBJECT_NAME":"STARLINK-34871","OBJECT_ID":"2025-176V","EPOCH":"2026-03-09T13:17:40.693344","MEAN_MOTION":15.30188645,"ECCENTRICITY":0.0001631,"INCLINATION":53.1607,"RA_OF_ASC_NODE":153.0749,"ARG_OF_PERICENTER":54.5475,"MEAN_ANOMALY":305.5678,"EPHEMERIS_TYPE":0,"CLASSIFICATION_TYPE":"U","NORAD_CAT_ID":65217,"ELEMENT_SET_NO":999,"REV_AT_EPOCH":3310,"BSTAR":0.00085814,"MEAN_MOTION_DOT":0.00025134,"MEAN_MOTION_DDOT":0}]
